0 OPS 4682 DEB
1 20131U 65027BD  13281.73258373  .00000960  00000-0  32790-2 0    78
2 20131 090.2709 245.7517 0031503 323.1863 153.9261 12.97407060163435
0 OPS 4682 DEB
1 20131U 65027BD  13288.37348360 -.00000048  00000-0 -19013-3 0    85
2 20131 090.2728 245.9172 0031028 305.2476 211.9119 12.97425316164294
0 OPS 4682 DEB
1 20131U 65027BD  13289.37697251 -.00000293  00000-0 -10316-2 0    91
2 20131 090.2730 245.9419 0030993 302.5303 218.9963 12.97426155164421
